{{DISPLAYTITLE:2010 AL<sub>30</sub>}}
{{Infobox planet | discovery=yes | physical_characteristics = yes | bgcolour=#FFFFC0 |
name=2010 AL<sub>30</sub>
| discoverer=[[林肯近地小行星研究小组|LINEAR]]
| discovered=2010年1月10日
| alt_names= 无
| mp_category=[[阿波罗型小行星|阿波罗型小行星]] （[[近地天体|NEO]]）
| epoch=2011-8-27.0
| semimajor=1.045128091475372AU
| perihelion=0.7241775399464268AU
| aphelion=1.366078643004317[[天文单位|AU]]
| eccentricity=0.3070920723945618
| period=390.2588033058607天<br>1.07年
| inclination=3.812874800555614°
| asc_node=112.9898997267029°
| arg_peri=97.05690193935297°
| mean_anomaly=123.0276817262838°
| avg_speed=
| dimensions=10–15米
| mass=
| density=
| surface_grav=
| escape_velocity=
| rotation=0.1417小时
| spectral_type=
| abs_magnitude=27.172
| albedo=
| single_temperature=
}}
{{mp|2010 AL|30}}是由[[林肯近地小行星研究小组|林肯近地小行星研究小组]]（LINEAR）在2010年1月10日发现的小型[[阿波罗型小行星|阿波罗型小行星]]<ref>{{cite web |title=JPL Small-Body Database Browser |url=http://ssd.jpl.nasa.gov/sbdb.cgi?sstr=2010%20AL30;orb=1 |accessdate=2010-11-04 |archive-date=2017-01-12 |archive-url=https://web.archive.org/web/20170112105429/http://ssd.jpl.nasa.gov/sbdb.cgi?sstr=2010%20AL30;orb=1 |dead-url=no }}</ref>。

在发现时，有科学家认为它只是一个[[太空垃圾|耗尽燃料的火箭推进器]]<ref>[http://timesofindia.indiatimes.com/world/us/What-was-that-Mystery-object-whizzes-past-Earth-/articleshow/5442565.cms What was that Mystery object whizzes past Earth] {{Wayback|url=http://timesofindia.indiatimes.com/world/us/What-was-that-Mystery-object-whizzes-past-Earth-/articleshow/5442565.cms |date=20100117174605 }}, The Times of India, January 14, 2010</ref>，然而后续研究证实它是一个[[近地天体|近地天体]]<ref>[http://neo.jpl.nasa.gov/news/news167.html Small Asteroid 2010 AL30 Will Fly Past The Earth] {{Wayback|url=http://neo.jpl.nasa.gov/news/news167.html |date=20170212050953 }}. [[NASA|NASA]]/[[JPL|JPL]] Near-Earth Object Program, January 12, 2010.</ref>。

2010年1月13日[[协调世界时|协调世界时]]12：46，它在距离地球表面122000千米的地方（即地月距离的1/3）掠过地球。

{{mp|2010 AL|30}}的直径约为5-10米。如果{{mp|2010 AL|30}}撞击地球，它将在[[地球大气层|大气层]]中燃烧，产生等于50-100 kT 的[[爆炸当量|爆炸当量]]。相比之下，[[第二次世界大战|第二次世界大战]]在日本长崎爆炸的[[胖子原子弹|胖子原子弹]]的爆炸当量为13-18kT<ref>[http://epod.usra.edu/blog/2010/03/nearearth-object-2010-al30.html Near-Earth Object 2010 AL30] {{Wayback|url=http://epod.usra.edu/blog/2010/03/nearearth-object-2010-al30.html |date=20201109032941 }}. [[NASA|NASA]] Earth Science Picture of the Day March 06, 2010.</ref>。

==相关条目==
* [[2010_RF12|2010 RF<sub>12</sub>]], [[2010_RX30|2010 RX<sub>30</sub>]], [[2010_TD54|2010 TD54<sub>54</sub>]]： 2010年掠过地球的小行星
* [[值得关注的小行星列表#曾经非常接近地球的小行星|值得关注的小行星列表#曾经非常接近地球的小行星]] 其他接近地球的小行星

==参考资料==
{{Reflist}}

== 外部链接== 
* [http://www.minorplanetcenter.org/mpec/K10/K10A64.html 2010 AL30]{{Wayback|url=http://www.minorplanetcenter.org/mpec/K10/K10A64.html |date=20160303170938 }} at Harvard University's [[Minor_Planet_Center|Minor Planet Center]]
* [http://www.heraldsun.com.au/lifestyle/the-other-side/mystery-object-2010-al30-to-pass-within-130000km-of-earth/story-e6frfhk6-1225818684999 Mystery object 2010 AL30 to pass within 130,000 km of Earth]{{Wayback|url=http://www.heraldsun.com.au/lifestyle/the-other-side/mystery-object-2010-al30-to-pass-within-130000km-of-earth/story-e6frfhk6-1225818684999 |date=20110614042253 }}

[[Category:阿波罗型小行星|Category:阿波罗型小行星]]
[[Category:2010年发现的小行星|Category:2010年发现的小行星]]
[[Category:近地小行星|Category:近地小行星]]